<osm generator="ogr2osm" version="0.6"><node id="-11" lat="37.780672" lon="-122.445827" visible="true"><tag k="type" v="School" /><tag k="name" v="School" /><tag k="address" v="150 Masonic Ave" /></node><node id="-55" lat="37.7154689992" lon="-122.436348" visible="true"><tag k="type" v="Gas" /><tag k="name" v="Gas" /><tag k="address" v="950 Madrid St" /></node><node id="-54" lat="37.7168090001" lon="-122.439841" visible="true"><tag k="type" v="Gas" /><tag k="name" v="Gas" /><tag k="address" v="875 Geneva Ave" /></node><node id="-53" lat="37.7748890003" lon="-122.411382001" visible="true"><tag k="type" v="Gas" /><tag k="name" v="Gas" /><tag k="address" v="786 Tehama St" /></node><node id="-52" lat="37.767837" lon="-122.429652" visible="true"><tag k="type" v="Restaurant" /><tag k="name" v="Restaurant" /><tag k="address" v="786 14th St" /></node><node id="-51" lat="37.7403380003" lon="-122.420557999" visible="true"><tag k="type" v="Restaurant" /><tag k="name" v="Restaurant" /><tag k="address" v="77 Santa Marina St" /></node><node id="-50" lat="37.7747489997" lon="-122.495975" visible="true"><tag k="type" v="Gas" /><tag k="name" v="Gas" /><tag k="address" v="750 37th Ave" /></node><node id="-49" lat="37.7817780005" lon="-122.446369999" visible="true"><tag k="type" v="Restaurant" /><tag k="name" v="Restaurant" /><tag k="address" v="65 Masonic Ave" /></node><node id="-48" lat="37.7855129996" lon="-122.41423" visible="true"><tag k="type" v="Restaurant" /><tag k="name" v="Restaurant" /><tag k="address" v="643 Ofarrell St" /></node><node id="-47" lat="37.777949" lon="-122.467975" visible="true"><tag k="type" v="Museum" /><tag k="name" v="Museum" /><tag k="address" v="550 11th Ave" /></node><node id="-46" lat="37.7356570003" lon="-122.432139" visible="true"><tag k="type" v="Restaurant" /><tag k="name" v="Restaurant" /><tag k="address" v="50 Surrey St" /></node><node id="-45" lat="37.7198999993" lon="-122.441000001" visible="true"><tag k="type" v="Gas" /><tag k="name" v="Gas" /><tag k="address" v="50 Rousseau St" /></node><node id="-44" lat="37.7578349999" lon="-122.421124" visible="true"><tag k="type" v="Museum" /><tag k="name" v="Museum" /><tag k="address" v="50 Liberty St" /></node><node id="-43" lat="37.7632379997" lon="-122.419565" visible="true"><tag k="type" v="Restaurant" /><tag k="name" v="Restaurant" /><tag k="address" v="50 Clarion Aly" /></node><node id="-42" lat="37.8019369997" lon="-122.406473999" visible="true"><tag k="type" v="Restaurant" /><tag k="name" v="Restaurant" /><tag k="address" v="490 Filbert St" /></node><node id="-41" lat="37.7633100001" lon="-122.427075" visible="true"><tag k="type" v="Restaurant" /><tag k="name" v="Restaurant" /><tag k="address" v="475 Church St" /></node><node id="-40" lat="37.7235800001" lon="-122.434591" visible="true"><tag k="type" v="Airport" /><tag k="name" v="Airport" /><tag k="address" v="4674 Mission St" /></node><node id="-39" lat="37.771235" lon="-122.429831" visible="true"><tag k="type" v="Airport" /><tag k="name" v="Airport" /><tag k="address" v="450 Waller St" /></node><node id="-38" lat="37.7831850003" lon="-122.462672" visible="true"><tag k="type" v="Restaurant" /><tag k="name" v="Restaurant" /><tag k="address" v="450 Clement St" /></node><node id="-37" lat="37.779249" lon="-122.481174999" visible="true"><tag k="type" v="Museum" /><tag k="name" v="Museum" /><tag k="address" v="450 23rd Ave" /></node><node id="-36" lat="37.7624850003" lon="-122.501172" visible="true"><tag k="type" v="Restaurant" /><tag k="name" v="Restaurant" /><tag k="address" v="4150 Irving St" /></node><node id="-35" lat="37.7499360005" lon="-122.431577" visible="true"><tag k="type" v="Airport" /><tag k="name" v="Airport" /><tag k="address" v="4150 25th St" /></node><node id="-34" lat="37.7515130003" lon="-122.427684" visible="true"><tag k="type" v="Museum" /><tag k="name" v="Museum" /><tag k="address" v="3875 24th St" /></node><node id="-33" lat="37.7386479996" lon="-122.412417" visible="true"><tag k="type" v="Museum" /><tag k="name" v="Museum" /><tag k="address" v="3850 Folsom St" /></node><node id="-32" lat="37.7410620003" lon="-122.420413" visible="true"><tag k="type" v="Airport" /><tag k="name" v="Airport" /><tag k="address" v="369 Coleridge St" /></node><node id="-31" lat="37.7818000001" lon="-122.4592" visible="true"><tag k="type" v="Airport" /><tag k="name" v="Airport" /><tag k="address" v="350 Park Presidio Blvd" /></node><node id="-30" lat="37.7508119999" lon="-122.413632" visible="true"><tag k="type" v="Museum" /><tag k="name" v="Museum" /><tag k="address" v="3237 25th St" /></node><node id="-29" lat="37.7311229997" lon="-122.465425" visible="true"><tag k="type" v="Hospital" /><tag k="name" v="Hospital" /><tag k="address" v="323 San Benito Way" /></node><node id="-28" lat="37.7820850003" lon="-122.450424" visible="true"><tag k="type" v="Museum" /><tag k="name" v="Museum" /><tag k="address" v="3050 Geary Blvd" /></node><node id="-27" lat="37.7394050002" lon="-122.491025" visible="true"><tag k="type" v="Museum" /><tag k="name" v="Museum" /><tag k="address" v="2550 35th Ave" /></node><node id="-26" lat="37.729982" lon="-122.454092" visible="true"><tag k="type" v="Museum" /><tag k="name" v="Museum" /><tag k="address" v="250 Montecito Ave" /></node><node id="-25" lat="37.7654349999" lon="-122.452384" visible="true"><tag k="type" v="Bus" /><tag k="name" v="Bus" /><tag k="address" v="250 Carl St" /></node><node id="-24" lat="37.7438860004" lon="-122.424168" visible="true"><tag k="type" v="Museum" /><tag k="name" v="Museum" /><tag k="address" v="250 29th St" /></node><node id="-23" lat="37.7552929998" lon="-122.408373" visible="true"><tag k="type" v="School" /><tag k="name" v="School" /><tag k="address" v="2450 Bryant St" /></node><node id="-22" lat="37.7418599999" lon="-122.477376" visible="true"><tag k="type" v="School" /><tag k="name" v="School" /><tag k="address" v="2450 22nd Ave" /></node><node id="-21" lat="37.7359559996" lon="-122.432115" visible="true"><tag k="type" v="School" /><tag k="name" v="School" /><tag k="address" v="23 Sussex St" /></node><node id="-20" lat="37.7742319999" lon="-122.422921" visible="true"><tag k="type" v="Bus" /><tag k="name" v="Bus" /><tag k="address" v="225 Octavia St" /></node><node id="-19" lat="37.7421119999" lon="-122.423697999" visible="true"><tag k="type" v="School" /><tag k="name" v="School" /><tag k="address" v="225 30th St" /></node><node id="-18" lat="37.7733349994" lon="-122.450581" visible="true"><tag k="type" v="School" /><tag k="name" v="School" /><tag k="address" v="2150 Hayes St" /></node><node id="-17" lat="37.7983820005" lon="-122.433794" visible="true"><tag k="type" v="School" /><tag k="name" v="School" /><tag k="address" v="2150 Filbert St" /></node><node id="-16" lat="37.7938779995" lon="-122.420028" visible="true"><tag k="type" v="Bus" /><tag k="name" v="Bus" /><tag k="address" v="1850 Polk St" /></node><node id="-15" lat="37.7667370002" lon="-122.420758" visible="true"><tag k="type" v="Hospital" /><tag k="name" v="Hospital" /><tag k="address" v="1688 15th St" /></node><node id="-14" lat="37.7824140002" lon="-122.430920999" visible="true"><tag k="type" v="Bus" /><tag k="name" v="Bus" /><tag k="address" v="1575 Ellis St" /></node><node id="-13" lat="37.7833639998" lon="-122.430627999" visible="true"><tag k="type" v="School" /><tag k="name" v="School" /><tag k="address" v="1561 Ofarrell St" /></node><node id="-12" lat="37.7151089998" lon="-122.466526" visible="true"><tag k="type" v="Hospital" /><tag k="name" v="Hospital" /><tag k="address" v="150 Vernon St" /></node><node id="-2" lat="37.7723350003" lon="-122.436781" visible="true"><tag k="type" v="School" /><tag k="name" v="School" /><tag k="address" v="1050 Page St" /></node><node id="-10" lat="37.7827859997" lon="-122.454274" visible="true"><tag k="type" v="Bus" /><tag k="name" v="Bus" /><tag k="address" v="150 Commonwealth Ave" /></node><node id="-9" lat="37.793634" lon="-122.39704" visible="true"><tag k="type" v="Bus" /><tag k="name" v="Bus" /><tag k="address" v="150 California St" /></node><node id="-8" lat="37.7900349997" lon="-122.418582" visible="true"><tag k="type" v="Bus" /><tag k="name" v="Bus" /><tag k="address" v="1450 Pine St" /></node><node id="-7" lat="37.7604550001" lon="-122.480923999" visible="true"><tag k="type" v="Bus" /><tag k="name" v="Bus" /><tag k="address" v="1450 24th Ave" /></node><node id="-6" lat="37.7760350001" lon="-122.437581" visible="true"><tag k="type" v="Bus" /><tag k="name" v="Bus" /><tag k="address" v="1350 Grove St" /></node><node id="-5" lat="37.7820269998" lon="-122.431028" visible="true"><tag k="type" v="School" /><tag k="name" v="School" /><tag k="address" v="1350 Fillmore St" /></node><node id="-4" lat="37.7197229993" lon="-122.440677" visible="true"><tag k="type" v="Hospital" /><tag k="name" v="Hospital" /><tag k="address" v="1180 Cayuga Ave" /></node><node id="-3" lat="37.7864600003" lon="-122.420154" visible="true"><tag k="type" v="Hospital" /><tag k="name" v="Hospital" /><tag k="address" v="1150 Van Ness Ave" /></node><node id="-1" lat="37.7316279998" lon="-122.391666999" visible="true"><tag k="type" v="Bus" /><tag k="name" v="Bus" /><tag k="address" v="100 Latona St" /></node></osm>